COSMOS 2251 DEB         
1 34390U 93036QF  17345.86931128  .00001138  00000-0  25791-3 0  9998
2 34390  74.0912 126.4700 0074428 177.6126 307.4084 14.55616731464389
